OBJECT_NAME,OBJECT_ID,EPOCH,MEAN_MOTION,ECCENTRICITY,INCLINATION,RA_OF_ASC_NODE,ARG_OF_PERICENTER,MEAN_ANOMALY,EPHEMERIS_TYPE,CLASSIFICATION_TYPE,NORAD_CAT_ID,ELEMENT_SET_NO,REV_AT_EPOCH,BSTAR,MEAN_MOTION_DOT,MEAN_MOTION_DDOT
STARLINK-37361,2026-110L,2026-06-15T14:00:01.999872,15.33448115,.0002006,97.2837,3.0256,84.8678,277.5154,0,U,69134,999,539,-.38049864E-3,-.12341E-3,0
STARLINK-37372,2026-110M,2026-06-15T14:00:01.999872,15.44562421,.00018709,97.2841,3.0080,104.6719,206.7736,0,U,69135,999,539,-.60965887E-1,-.2504883E-1,0
STARLINK-37531,2026-110N,2026-06-15T14:00:01.999872,15.33426990,.00016156,97.2833,3.0399,87.9142,304.5354,0,U,69136,999,539,.20724397E-4,.594E-5,0
STARLINK-37662,2026-110P,2026-06-15T14:00:01.999872,15.44932266,.0001671,97.2844,3.0107,84.8138,229.4496,0,U,69137,999,539,-.59019588E-1,-.2461151E-1,0
STARLINK-37658,2026-110Q,2026-06-15T11:49:58.340640,15.49223652,.00021946,97.2827,2.8407,120.4048,239.7421,0,U,69138,999,534,.10356263E-2,.56712E-3,0
STARLINK-37659,2026-110R,2026-06-15T12:01:05.468736,15.49207704,.00014448,97.2830,2.8309,69.9288,290.2118,0,U,69139,999,534,.10856967E-2,.59444E-3,0
STARLINK-37653,2026-110S,2026-06-15T12:04:36.154272,15.49213318,.00016343,97.2829,2.8275,98.6222,261.5214,0,U,69140,999,534,.56711131E-3,.30901E-3,0
STARLINK-37654,2026-110T,2026-06-15T12:34:52.995072,15.49252690,.00018186,97.2827,2.9503,88.7991,271.3469,0,U,69141,999,535,.70164466E-3,.38342E-3,0
STARLINK-37655,2026-110U,2026-06-15T14:00:01.999872,15.40935361,.00015567,97.2841,3.0518,62.0502,354.7672,0,U,69142,999,539,-.86187981E-1,-.3109989E-1,0
STARLINK-37636,2026-110V,2026-06-15T14:00:01.999872,15.33400363,.00020346,97.2846,3.0821,76.3829,61.0301,0,U,69143,999,540,.25515209E-3,.816E-4,0
STARLINK-37638,2026-110W,2026-06-15T14:00:01.999872,15.33436914,.00014536,97.2844,3.0865,73.6833,78.7362,0,U,69144,999,540,.10686201E-4,.27E-5,0
STARLINK-37657,2026-110X,2026-06-15T12:35:11.455296,15.49207823,.00013063,97.2826,2.9495,20.9374,339.1931,0,U,69145,999,535,.87370942E-3,.47748E-3,0
STARLINK-37639,2026-110Y,2026-06-15T14:00:01.999872,15.33435187,.00015635,97.2842,3.1039,80.3243,102.1138,0,U,69146,999,545,.22650775E-4,.656E-5,0
STARLINK-37661,2026-110Z,2026-06-15T13:06:04.753440,15.49204189,.00017116,97.2826,2.9207,94.2846,265.8601,0,U,69147,999,535,.74265938E-3,.40531E-3,0
STARLINK-37395,2026-111A,2026-06-15T14:00:01.999872,15.64173749,.00009942,53.1599,159.9596,66.3078,278.5512,0,U,69148,999,529,-.75779046E-2,-.676259E-2,0
STARLINK-37346,2026-111B,2026-06-15T14:00:01.999872,15.49304358,.0001414,53.1595,160.4863,74.1626,10.5798,0,U,69149,999,529,.21426563E-3,.11484E-3,0
STARLINK-37332,2026-111C,2026-06-15T14:00:01.999872,15.49305121,.00010757,53.1588,160.8122,83.6869,200.2514,0,U,69150,999,529,.63055553E-4,.306E-4,0
STARLINK-37297,2026-111D,2026-06-15T14:00:01.999872,15.63386463,.00014545,53.1599,159.8965,85.1418,290.4458,0,U,69151,999,529,-.3216806E-1,-.2613538E-1,0
STARLINK-37317,2026-111E,2026-06-15T14:00:01.999872,15.68039242,.00011068,53.1596,159.7721,67.5771,8.7303,0,U,69152,999,529,-.25768151E-1,-.2539766E-1,0
STARLINK-37374,2026-111F,2026-06-15T14:00:01.999872,15.49304581,.00009032,53.1586,160.9889,86.9636,109.3760,0,U,69153,999,529,.38111001E-4,.1672E-4,0
STARLINK-37235,2026-111G,2026-06-15T07:28:38.798688,15.49312212,.00014214,53.1588,162.5293,59.4000,300.7150,0,U,69154,999,394,.58548943E-3,.32252E-3,0
STARLINK-37329,2026-111H,2026-06-15T14:00:01.999872,15.67924999,.00011301,53.1596,159.7762,64.9235,9.5119,0,U,69155,999,529,-.26570346E-1,-.259743E-1,0
STARLINK-37345,2026-111J,2026-06-15T14:00:01.999872,15.69588958,.00011578,53.1593,159.7321,64.4373,31.2099,0,U,69156,999,529,-.24836597E-1,-.2601656E-1,0
STARLINK-37353,2026-111K,2026-06-15T14:00:01.999872,15.69850323,.00012031,53.1595,159.7264,67.1881,31.2164,0,U,69157,999,529,-.24463121E-1,-.2592353E-1,0
STARLINK-37363,2026-111L,2026-06-15T14:00:01.999872,15.69605663,.00010552,53.1595,159.7289,59.7181,37.3130,0,U,69158,999,529,-.24596228E-1,-.2581317E-1,0
STARLINK-37343,2026-111M,2026-06-15T14:00:01.999872,15.49306520,.00009759,53.1587,160.9897,89.4101,106.1558,0,U,69159,999,529,.35539561E-4,.1529E-4,0
STARLINK-37328,2026-111N,2026-06-13T17:21:52.143552,15.80975520,.00028828,53.1569,168.9418,21.7732,338.3413,0,U,69160,999,371,.21155205E-2,.440945E-2,0
STARLINK-37311,2026-111P,2026-06-15T14:00:01.999872,15.73244814,.00008474,53.1587,159.8101,79.9283,338.0691,0,U,69161,999,529,-.20736228E-1,-.254678E-1,0
STARLINK-36286,2026-111Q,2026-06-14T01:13:18.759648,15.78761169,.00020619,53.1564,167.4332,147.7855,212.3293,0,U,69162,999,376,.26694472E-2,.507206E-2,0
STARLINK-37196,2026-111R,2026-06-14T13:26:54.237408,15.78098124,.0001435,53.1566,164.9214,48.8780,311.2365,0,U,69163,999,384,.77789E-3,.136844E-2,0
