STARLINK-37361          
1 69134U 26110L   26166.58335648 -.00012341  00000+0 -38050-3 0  9997
2 69134  97.2837   3.0256 0002006  84.8678 277.5154 15.33448115  5399
STARLINK-37372          
1 69135U 26110M   26166.58335648 -.02504883  00000+0 -60966-1 0  9996
2 69135  97.2841   3.0080 0001870 104.6719 206.7736 15.44562421  5394
STARLINK-37531          
1 69136U 26110N   26166.58335648  .00000594  00000+0  20724-4 0  9994
2 69136  97.2833   3.0399 0001615  87.9142 304.5354 15.33426990  5390
STARLINK-37662          
1 69137U 26110P   26166.58335648 -.02461151  00000+0 -59020-1 0  9997
2 69137  97.2844   3.0107 0001671  84.8138 229.4496 15.44932266  5395
STARLINK-37658          
1 69138U 26110Q   26166.49303635  .00056712  00000+0  10356-2 0  9998
2 69138  97.2827   2.8407 0002194 120.4048 239.7421 15.49223652  5349
STARLINK-37659          
1 69139U 26110R   26166.50075774  .00059444  00000+0  10857-2 0  9992
2 69139  97.2830   2.8309 0001444  69.9288 290.2118 15.49207704  5340
STARLINK-37653          
1 69140U 26110S   26166.50319623  .00030901  00000+0  56711-3 0  9995
2 69140  97.2829   2.8275 0001634  98.6222 261.5214 15.49213318  5346
STARLINK-37654          
1 69141U 26110T   26166.52422448  .00038342  00000+0  70164-3 0  9993
2 69141  97.2827   2.9503 0001818  88.7991 271.3469 15.49252690  5355
STARLINK-37655          
1 69142U 26110U   26166.58335648 -.03109989  00000+0 -86188-1 0  9997
2 69142  97.2841   3.0518 0001556  62.0502 354.7672 15.40935361  5392
STARLINK-37636          
1 69143U 26110V   26166.58335648  .00008160  00000+0  25515-3 0  9991
2 69143  97.2846   3.0821 0002034  76.3829  61.0301 15.33400363  5407
STARLINK-37638          
1 69144U 26110W   26166.58335648  .00000270  00000+0  10686-4 0  9990
2 69144  97.2844   3.0865 0001453  73.6833  78.7362 15.33436914  5406
STARLINK-37657          
1 69145U 26110X   26166.52443814  .00047748  00000+0  87371-3 0  9995
2 69145  97.2826   2.9495 0001306  20.9374 339.1931 15.49207823  5358
STARLINK-37639          
1 69146U 26110Y   26166.58335648  .00000656  00000+0  22651-4 0  9995
2 69146  97.2842   3.1039 0001563  80.3243 102.1138 15.33435187  5451
STARLINK-37661          
1 69147U 26110Z   26166.54588835  .00040531  00000+0  74266-3 0  9994
2 69147  97.2826   2.9207 0001711  94.2846 265.8601 15.49204189  5350
STARLINK-37395          
1 69148U 26111A   26166.58335648 -.00676259  00000+0 -75779-2 0  9995
2 69148  53.1599 159.9596 0000994  66.3078 278.5512 15.64173749  5291
STARLINK-37346          
1 69149U 26111B   26166.58335648  .00011484  00000+0  21427-3 0  9999
2 69149  53.1595 160.4863 0001414  74.1626  10.5798 15.49304358  5291
STARLINK-37332          
1 69150U 26111C   26166.58335648  .00003060  00000+0  63056-4 0  9997
2 69150  53.1588 160.8122 0001075  83.6869 200.2514 15.49305121  5297
STARLINK-37297          
1 69151U 26111D   26166.58335648 -.02613538  00000+0 -32168-1 0  9996
2 69151  53.1599 159.8965 0001454  85.1418 290.4458 15.63386463  5293
STARLINK-37317          
1 69152U 26111E   26166.58335648 -.02539766  00000+0 -25768-1 0  9995
2 69152  53.1596 159.7721 0001106  67.5771   8.7303 15.68039242  5294
STARLINK-37374          
1 69153U 26111F   26166.58335648  .00001672  00000+0  38111-4 0  9991
2 69153  53.1586 160.9889 0000903  86.9636 109.3760 15.49304581  5297
STARLINK-37235          
1 69154U 26111G   26166.31156017  .00032252  00000+0  58549-3 0  9998
2 69154  53.1588 162.5293 0001421  59.4000 300.7150 15.49312212  3943
STARLINK-37329          
1 69155U 26111H   26166.58335648 -.02597430  00000+0 -26570-1 0  9992
2 69155  53.1596 159.7762 0001130  64.9235   9.5119 15.67924999  5290
STARLINK-37345          
1 69156U 26111J   26166.58335648 -.02601656  00000+0 -24837-1 0  9993
2 69156  53.1593 159.7321 0001157  64.4373  31.2099 15.69588958  5298
STARLINK-37353          
1 69157U 26111K   26166.58335648 -.02592353  00000+0 -24463-1 0  9992
2 69157  53.1595 159.7264 0001203  67.1881  31.2164 15.69850323  5294
STARLINK-37363          
1 69158U 26111L   26166.58335648 -.02581317  00000+0 -24596-1 0  9998
2 69158  53.1595 159.7289 0001055  59.7181  37.3130 15.69605663  5292
STARLINK-37343          
1 69159U 26111M   26166.58335648  .00001529  00000+0  35540-4 0  9991
2 69159  53.1587 160.9897 0000975  89.4101 106.1558 15.49306520  5292
STARLINK-37328          
1 69160U 26111N   26164.72352018  .00440945  00000+0  21155-2 0  9991
2 69160  53.1569 168.9418 0002882  21.7732 338.3413 15.80975520  3710
STARLINK-37311          
1 69161U 26111P   26166.58335648 -.02546780  00000+0 -20736-1 0  9999
2 69161  53.1587 159.8101 0000847  79.9283 338.0691 15.73244814  5291
STARLINK-36286          
1 69162U 26111Q   26165.05091157  .00507206  00000+0  26694-2 0  9991
2 69162  53.1564 167.4332 0002061 147.7855 212.3293 15.78761169  3761
STARLINK-37196          
1 69163U 26111R   26165.56034997  .00136844  00000+0  77789-3 0  9995
2 69163  53.1566 164.9214 0001435  48.8780 311.2365 15.78098124  3849
